MEAN_MOTION;ECCENTRICITY;INCLINATION;RA_OF_ASC_NODE;ARG_OF_PERICENTER;MEAN_ANOMALY;BSTAR;MEAN_MOTION_DOT;MEAN_MOTION_DDOT;TYPE
2.00560913;0.0163044;52.0705;49.8658;107.2794;61.4208;0;-3.0E-7;0;Navigation
2.00560894;0.0163048;52.0708;49.8435;107.2851;71.8105;0;-3.2E-7;0;Navigation
2.00560876;0.0163051;52.0712;49.8195;107.2938;111.5011;0;-3.5E-7;0;Navigation
2.00560876;0.0163051;52.0712;49.8195;107.2938;111.5011;0;-3.5E-7;0;Navigation
2.00560836;0.016306;52.0721;49.7551;107.3127;103.1926;0;-4.5E-7;0;Navigation
2.00560832;0.0163062;52.0722;49.7462;107.3174;251.2193;0;-4.7E-7;0;Navigation
2.00560827;0.0163062;52.0724;49.7341;107.3196;91.8122;0;-4.9E-7;0;Navigation
2.0056082;0.0163063;52.0728;49.711;107.3289;116.5705;0;-5.3E-7;0;Navigation
2.0056082;0.0163063;52.0728;49.711;107.3289;116.5705;0;-5.3E-7;0;Navigation
2.00560808;0.0163069;52.0734;49.6698;107.3406;83.5794;0;-6.0E-7;0;Navigation
2.00560804;0.0163077;52.0736;49.6489;107.3433;71.3741;0;-6.3E-7;0;Navigation
2.00560804;0.0163077;52.0736;49.6489;107.3433;71.3741;0;-6.3E-7;0;Navigation
2.00560801;0.0163094;52.0746;49.5841;107.3618;70.0836;0;-6.9E-7;0;Navigation
2.00560806;0.0163098;52.0752;49.5412;107.3759;64.2297;0;-7.1E-7;0;Navigation
2.00560814;0.0163099;52.0757;49.508;107.3886;256.6188;0;-7.1E-7;0;Navigation
2.00560826;0.0163112;52.0764;49.456;107.4045;44.0067;0;-6.9E-7;0;Navigation
2.00560826;0.0163112;52.0764;49.456;107.4045;44.0067;0;-6.9E-7;0;Navigation
2.00560828;0.0163116;52.0766;49.4433;107.4075;255.1086;0;-6.9E-7;0;Navigation
2.00560828;0.0163116;52.0766;49.4433;107.4075;255.1086;0;-6.9E-7;0;Navigation
2.0056084;0.0163138;52.0773;49.3908;107.4217;49.9351;0;-6.7E-7;0;Navigation
2.00560844;0.0163146;52.0778;49.3572;107.4329;250.4381;0;-6.6E-7;0;Navigation
2.00560847;0.016315;52.078;49.3461;107.4379;74.8562;0;-6.5E-7;0;Navigation
2.00560849;0.0163158;52.0784;49.3136;107.4487;256.1382;0;-6.5E-7;0;Navigation
2.0056085;0.0163169;52.0788;49.2855;107.4585;5.2923;0;-6.5E-7;0;Navigation
2.00560847;0.0163175;52.0791;49.26;107.4666;70.5289;0;-6.5E-7;0;Navigation
2.00560843;0.0163182;52.0795;49.2366;107.4735;99.5718;0;-6.5E-7;0;Navigation
2.00560843;0.0163182;52.0795;49.2366;107.4735;99.5718;0;-6.5E-7;0;Navigation
2.0056083;0.0163192;52.0801;49.1928;107.4873;110.5441;0;-6.5E-7;0;Navigation
2.0056083;0.0163192;52.0801;49.1928;107.4873;110.5441;0;-6.5E-7;0;Navigation
2.00560796;0.0163215;52.0811;49.1193;107.505;255.6963;0;-6.4E-7;0;Navigation
2.00560796;0.0163215;52.0811;49.1193;107.505;255.6963;0;-6.4E-7;0;Navigation
2.00560756;0.0163234;52.0818;49.0657;107.5214;70.0666;0;-6.2E-7;0;Navigation
2.00560756;0.0163234;52.0818;49.0657;107.5214;70.0666;0;-6.2E-7;0;Navigation
2.00560756;0.0163234;52.0818;49.0657;107.5214;70.0666;0;-6.2E-7;0;Navigation
2.00560669;0.0163266;52.083;48.9768;107.5496;113.3618;0;-5.6E-7;0;Navigation
2.00560669;0.0163266;52.083;48.9768;107.5496;113.3618;0;-5.6E-7;0;Navigation
2.00560612;0.0163282;52.0837;48.9251;107.5666;255.3096;0;-5.1E-7;0;Navigation
2.00560612;0.0163282;52.0837;48.9251;107.5666;255.3096;0;-5.1E-7;0;Navigation
2.00560544;0.0163302;52.0844;48.8683;107.5855;122.9223;0;-4.6E-7;0;Navigation
2.00560544;0.0163302;52.0844;48.8683;107.5855;122.9223;0;-4.6E-7;0;Navigation
2.00560466;0.0163321;52.0853;48.8039;107.6049;116.371;0;-4.2E-7;0;Navigation
2.00560426;0.016333;52.0858;48.7674;107.6161;3.5841;0;-4.2E-7;0;Navigation
2.00560426;0.016333;52.0858;48.7674;107.6161;3.5841;0;-4.2E-7;0;Navigation
2.00560386;0.0163343;52.0863;48.7308;107.6279;254.677;0;-4.2E-7;0;Navigation
2.00560331;0.0163364;52.087;48.6771;107.6442;69.2627;0;-4.5E-7;0;Navigation
2.00560309;0.016338;52.0874;48.6517;107.6525;131.1778;0;-4.8E-7;0;Navigation
2.00560279;0.0163397;52.0879;48.6123;107.6662;68.7145;0;-5.4E-7;0;Navigation
2.00560242;0.0163424;52.0887;48.5484;107.6904;53.0277;0;-6.5E-7;0;Navigation
2.00560236;0.0163434;52.0889;48.5363;107.6956;254.4355;0;-6.7E-7;0;Navigation
2.00560236;0.0163434;52.0889;48.5363;107.6956;254.4355;0;-6.7E-7;0;Navigation
2.0056022;0.0163453;52.0895;48.4926;107.7119;261.9907;0;-7.4E-7;0;Navigation
2.00560213;0.0163472;52.09;48.4589;107.7234;103.1619;0;-7.9E-7;0;Navigation
2.00560209;0.0163499;52.0906;48.4146;107.7396;121.9339;0;-8.4E-7;0;Navigation
2.00560209;0.016351;52.0908;48.3957;107.7455;75.9635;0;-8.5E-7;0;Navigation
2.00560213;0.0163548;52.0917;48.3313;107.7686;68.8807;0;-8.7E-7;0;Navigation
2.0056022;0.0163576;52.0923;48.2858;107.7854;106.2172;0;-8.6E-7;0;Navigation
2.00560228;0.0163598;52.0928;48.2446;107.8007;74.1289;0;-8.5E-7;0;Navigation
2.00560232;0.0163611;52.0931;48.2229;107.8093;74.6826;0;-8.4E-7;0;Navigation
2.00560232;0.0163611;52.0931;48.2229;107.8093;74.6826;0;-8.4E-7;0;Navigation
2.00560243;0.0163643;52.0939;48.1593;107.8353;55.9203;0;-8.3E-7;0;Navigation
2.00560243;0.0163643;52.0939;48.1593;107.8353;55.9203;0;-8.3E-7;0;Navigation
2.00560244;0.0163664;52.0945;48.1102;107.8555;154.0225;0;-8.3E-7;0;Navigation
2.00560244;0.0163673;52.0948;48.0937;107.8623;67.9302;0;-8.3E-7;0;Navigation
2.00560233;0.0163709;52.0956;48.0295;107.8868;58.2678;0;-8.3E-7;0;Navigation
2.00560231;0.0163701;52.0956;48.0225;107.8907;175.4607;0;-8.3E-7;0;Navigation
2.0056022;0.0163724;52.0961;47.9858;107.9044;67.0413;0;-8.4E-7;0;Navigation
2.0056022;0.0163724;52.0961;47.9858;107.9044;67.0413;0;-8.4E-7;0;Navigation
2.0056017;0.0163775;52.0972;47.8986;107.9374;81.3686;0;-8.1E-7;0;Navigation
2.0056017;0.0163775;52.0972;47.8986;107.9374;81.3686;0;-8.1E-7;0;Navigation
2.00560151;0.0163782;52.0976;47.8733;107.947;143.191;0;-8.0E-7;0;Navigation
2.00560099;0.0163822;52.0983;47.8135;107.9727;60.2663;0;-7.6E-7;0;Navigation
2.00560055;0.0163843;52.0988;47.7706;107.9908;54.5125;0;-7.2E-7;0;Navigation
2.00560025;0.0163855;52.0992;47.745;108.0011;121.4524;0;-6.9E-7;0;Navigation
2.00560025;0.0163855;52.0992;47.745;108.0011;121.4524;0;-6.9E-7;0;Navigation
2.00559947;0.0163886;52.1;47.6777;108.0296;164.4086;0;-6.3E-7;0;Navigation
2.00559899;0.0163906;52.1005;47.6368;108.0473;125.6202;0;-6.0E-7;0;Navigation
2.00559899;0.0163906;52.1005;47.6368;108.0473;125.6202;0;-6.0E-7;0;Navigation
2.00559844;0.0163933;52.1011;47.5896;108.0679;191.8072;0;-5.8E-7;0;Navigation
2.00559796;0.0163944;52.1017;47.5426;108.0879;254.3445;0;-5.8E-7;0;Navigation
2.00559764;0.0163962;52.1021;47.5107;108.1003;66.4274;0;-6.0E-7;0;Navigation
2.00559725;0.0163987;52.1027;47.4671;108.1187;72.1985;0;-6.4E-7;0;Navigation
2.00559691;0.0164013;52.1033;47.4201;108.1403;135.0081;0;-7.0E-7;0;Navigation
2.00559668;0.0164033;52.1038;47.3813;108.1584;61.5267;0;-7.6E-7;0;Navigation
2.00559666;0.0164034;52.1039;47.3731;108.1631;197.3645;0;-7.8E-7;0;Navigation
2.00559658;0.0164043;52.1041;47.3556;108.1706;128.9512;0;-8.1E-7;0;Navigation
2.00559643;0.0164065;52.1047;47.3117;108.1921;140.0373;0;-8.8E-7;0;Navigation
2.00559638;0.0164071;52.1049;47.295;108.2002;57.9827;0;-9.0E-7;0;Navigation
2.0055963;0.0164093;52.1055;47.2516;108.2205;60.2699;0;-9.5E-7;0;Navigation
2.0055963;0.0164093;52.1055;47.2516;108.2205;60.2699;0;-9.5E-7;0;Navigation
2.0055963;0.0164093;52.1055;47.2516;108.2205;60.2699;0;-9.5E-7;0;Navigation
2.0055963;0.0164093;52.1055;47.2516;108.2205;60.2699;0;-9.5E-7;0;Navigation
2.00559644;0.0164173;52.1075;47.092;108.2956;199.0719;0;-9.9E-7;0;Navigation
2.00559647;0.0164188;52.1078;47.0711;108.3047;187.6383;0;-9.8E-7;0;Navigation
2.00559652;0.0164202;52.1081;47.0512;108.3148;160.1672;0;-9.7E-7;0;Navigation
2.00559655;0.0164211;52.1083;47.0354;108.3226;63.0389;0;-9.7E-7;0;Navigation
2.00559663;0.0164237;52.1089;46.9869;108.3464;151.9384;0;-9.6E-7;0;Navigation
2.00559668;0.0164265;52.1093;46.9524;108.3643;5.99;0;-9.5E-7;0;Navigation
2.00559667;0.0164291;52.1099;46.9062;108.3881;56.5174;0;-9.5E-7;0;Navigation
2.0055966;0.0164326;52.1104;46.8628;108.4094;58.4212;0;-9.6E-7;0;Navigation
2.00559649;0.0164345;52.111;46.8194;108.4303;62.512;0;-9.6E-7;0;Navigation
2.00559649;0.0164345;52.111;46.8194;108.4303;62.512;0;-9.6E-7;0;Navigation
2.0055961;0.0164389;52.1121;46.7332;108.4717;59.0501;0;-9.3E-7;0;Navigation
2.00559604;0.0164404;52.1123;46.7214;108.4773;256.3152;0;-9.3E-7;0;Navigation
2.00559577;0.0164425;52.1127;46.6885;108.4949;84.5914;0;-9.1E-7;0;Navigation
2.00559556;0.0164439;52.113;46.6617;108.5079;171.1731;0;-8.8E-7;0;Navigation
2.00559503;0.0164468;52.1138;46.6035;108.539;60.8083;0;-8.3E-7;0;Navigation
2.00559458;0.0164488;52.1143;46.5603;108.5615;60.2362;0;-7.8E-7;0;Navigation
2.00559458;0.0164488;52.1143;46.5603;108.5615;60.2362;0;-7.8E-7;0;Navigation
2.00559384;0.0164513;52.1151;46.495;108.5957;69.6631;0;-7.1E-7;0;Navigation
2.00559384;0.0164513;52.1151;46.495;108.5957;69.6631;0;-7.1E-7;0;Navigation
2.00559384;0.0164513;52.1151;46.495;108.5957;69.6631;0;-7.1E-7;0;Navigation
2.00559384;0.0164513;52.1151;46.495;108.5957;69.6631;0;-7.1E-7;0;Navigation
2.00559384;0.0164513;52.1151;46.495;108.5957;69.6631;0;-7.1E-7;0;Navigation
2.00559176;0.01646;52.1177;46.3005;108.6987;69.1291;0;-6.7E-7;0;Navigation
2.0055914;0.0164616;52.1182;46.258;108.7222;56.0281;0;-7.1E-7;0;Navigation
2.00559108;0.0164646;52.1189;46.2084;108.7492;162.4929;0;-7.8E-7;0;Navigation
2.00559089;0.0164663;52.1193;46.1741;108.7697;12.2903;0;-8.3E-7;0;Navigation
2.00559071;0.0164682;52.1199;46.1322;108.7945;350.3579;0;-8.9E-7;0;Navigation
2.0055906;0.0164702;52.1205;46.0889;108.8189;350.7766;0;-9.5E-7;0;Navigation
2.00559054;0.0164712;52.1212;46.0409;108.8451;70.0393;0;-9.9E-7;0;Navigation
2.00559054;0.0164712;52.1212;46.0409;108.8451;70.0393;0;-9.9E-7;0;Navigation
2.00559054;0.0164712;52.1212;46.0409;108.8451;70.0393;0;-9.9E-7;0;Navigation
2.00559063;0.0164783;52.1229;45.9119;108.9206;59.5923;0;-9.9E-7;0;Navigation
2.00559063;0.0164783;52.1229;45.9119;108.9206;59.5923;0;-9.9E-7;0;Navigation
2.0055907;0.0164808;52.1235;45.8686;108.9448;61.5736;0;-9.7E-7;0;Navigation
2.00559077;0.0164828;52.124;45.829;108.9671;1.285;0;-9.6E-7;0;Navigation
2.00559083;0.0164853;52.1246;45.7852;108.9935;10.9273;0;-9.5E-7;0;Navigation
2.00559085;0.0164878;52.1252;45.7389;109.0216;61.3129;0;-9.5E-7;0;Navigation
